NORAD_CAT_ID,OBJECT_NAME,OBJECT_TYPE,EPOCH,MEAN_MOTION,ECCENTRICITY,INCLINATION,RA_OF_ASC_NODE,ARG_OF_PERICENTER,MEAN_ANOMALY,BSTAR,MEAN_MOTION_DOT,MEAN_MOTION_DDOT,TLE_LINE0,TLE_LINE1,TLE_LINE2,SEMIMAJOR_AXIS,PERIOD,APOGEE,PERIGEE,DECAYED
53981.0,STARLINK-5149,PAYLOAD,2024-05-06 20:45:42,15.08849536,0.0001284,53.2171,339.8324,86.9313,273.1826,8.4799e-05,1.062e-05,0.0,0 STARLINK-5149,1 53981U 22125T   24127.86507072  .00001062  00000-0  84799-4 0  9999,2 53981  53.2171 339.8324 0001284  86.9313 273.1826 15.08849536 88187,6917.851,95.437,540.604,538.828,0.0
53981.0,STARLINK-5149,PAYLOAD,2024-05-06 23:56:28,15.08851885,0.0001308,53.2173,339.2373,88.1361,271.9781,0.00011471,1.539e-05,0.0,0 STARLINK-5149,1 53981U 22125T   24127.99754880  .00001539  00000-0  11471-3 0  9999,2 53981  53.2173 339.2373 0001308  88.1361 271.9781 15.08851885 88200,6917.844,95.437,540.614,538.804,0.0
53981.0,STARLINK-5149,PAYLOAD,2024-05-07 20:36:29,15.08838246,0.0001227,53.2169,335.3718,82.9123,277.2009,-8.1729e-05,-1.588e-05,0.0,0 STARLINK-5149,1 53981U 22125T   24128.85867630 -.00001588  00000-0 -81729-4 0  9993,2 53981  53.2169 335.3718 0001227  82.9123 277.2009 15.08838246 88403,6917.886,95.438,540.6,538.902,0.0
53981.0,STARLINK-5149,PAYLOAD,2024-05-08 14:05:44,15.0883598,0.0001266,53.2179,332.101,87.3102,272.8035,6.3865e-05,7.29e-06,0.0,0 STARLINK-5149,1 53981U 22125T   24129.58731950  .00000729  00000-0  63865-4 0  9994,2 53981  53.2179 332.1010 0001266  87.3102 272.8035 15.08835980 88449,6917.893,95.438,540.633,538.882,0.0
53981.0,STARLINK-5149,PAYLOAD,2024-05-08 22:02:39,15.08847197,0.0001251,53.2177,330.6157,90.3003,269.8133,0.00026775,3.977e-05,0.0,0 STARLINK-5149,1 53981U 22125T   24129.91851559  .00003977  00000-0  26775-3 0  9995,2 53981  53.2177 330.6157 0001251  90.3003 269.8133 15.08847197 88493,6917.858,95.437,540.589,538.858,0.0
53981.0,STARLINK-5149,PAYLOAD,2024-05-08 23:38:02,15.08849976,0.0001244,53.2176,330.3175,87.153,272.9605,0.00033033,4.975e-05,0.0,0 STARLINK-5149,1 53981U 22125T   24129.98475480  .00004975  00000-0  33033-3 0  9991,2 53981  53.2176 330.3175 0001244  87.1530 272.9605 15.08849976 88575,6917.85,95.437,540.575,538.854,0.0
53981.0,STARLINK-5149,PAYLOAD,2024-05-09 05:59:35,15.08842814,0.0001129,53.2174,329.1246,84.0542,276.0579,0.00022932,3.364e-05,0.0,0 STARLINK-5149,1 53981U 22125T   24130.24971666  .00003364  00000-0  22932-3 0  9996,2 53981  53.2174 329.1246 0001129  84.0542 276.0579 15.08842814 88613,6917.872,95.437,540.518,538.956,0.0
53981.0,STARLINK-5149,PAYLOAD,2024-05-09 18:42:40,15.08844451,0.0001138,53.2175,326.7468,88.8815,271.2307,0.00019596,2.833e-05,0.0,0 STARLINK-5149,1 53981U 22125T   24130.77963648  .00002833  00000-0  19596-3 0  9997,2 53981  53.2175 326.7468 0001138  88.8815 271.2307 15.08844451 88624,6917.867,95.437,540.519,538.945,0.0
53981.0,STARLINK-5149,PAYLOAD,2024-05-10 05:50:22,15.08851168,9.94e-05,53.2166,324.6668,73.3446,286.7655,0.00028485,4.25e-05,0.0,0 STARLINK-5149,1 53981U 22125T   24131.24331342  .00004250  00000-0  28485-3 0  9992,2 53981  53.2166 324.6668 0000994  73.3446 286.7655 15.08851168 88698,6917.846,95.437,540.399,539.024,0.0
53981.0,STARLINK-5149,PAYLOAD,2024-05-10 20:08:51,15.08840631,0.000144,53.2187,321.9936,87.2823,272.8334,5.2002e-05,5.4e-06,0.0,0 STARLINK-5149,1 53981U 22125T   24131.83948142  .00000540  00000-0  52002-4 0  9990,2 53981  53.2187 321.9936 0001440  87.2823 272.8334 15.08840631 88850,6917.878,95.438,540.74,538.747,0.0
53981.0,STARLINK-5149,PAYLOAD,2024-05-11 19:59:36,15.08843032,0.0002717,53.2167,317.5296,38.0678,322.0505,-0.00041472,-6.884e-05,0.0,0 STARLINK-5149,1 53981U 22125T   24132.83305762 -.00006884  00000-0 -41472-3 0  9993,2 53981  53.2167 317.5296 0002717  38.0678 322.0505 15.08843032 89002,6917.871,95.437,541.616,537.857,0.0
53981.0,STARLINK-5149,PAYLOAD,2024-05-11 21:35:00,15.08821564,0.0002183,53.2176,317.2336,52.1258,307.9931,-0.00097641,-0.00015787,0.0,0 STARLINK-5149,1 53981U 22125T   24132.89930832 -.00015787  00000-0 -97641-3 0  9992,2 53981  53.2176 317.2336 0002183  52.1258 307.9931 15.08821564 88945,6917.937,95.439,541.312,538.292,0.0
53981.0,STARLINK-5149,PAYLOAD,2024-05-12 05:31:58,15.08748619,0.000151,53.219,315.7417,109.138,250.9776,-0.0025871,-0.00041124,0.0,0 STARLINK-5149,1 53981U 22125T   24133.23053581 -.00041124  00000-0 -25871-2 0  9997,2 53981  53.2190 315.7417 0001510 109.1380 250.9776 15.08748619 89063,6918.16,95.443,541.069,538.98,0.0
53981.0,STARLINK-5149,PAYLOAD,2024-05-12 18:15:06,15.08740669,9.63e-05,53.2178,313.3658,107.1748,252.935,-0.0016775,-0.00026813,0.0,0 STARLINK-5149,1 53981U 22125T   24133.76048749 -.00026813  00000-0 -16775-2 0  9996,2 53981  53.2178 313.3658 0000963 107.1748 252.9350 15.08740669 89143,6918.184,95.444,540.715,539.383,0.0
53981.0,STARLINK-5149,PAYLOAD,2024-05-12 21:25:52,15.08776905,0.0001362,53.2174,312.7727,100.0572,260.0574,4.7166e-05,4.62e-06,0.0,0 STARLINK-5149,1 53981U 22125T   24133.89296898  .00000462  00000-0  47166-4 0  9990,2 53981  53.2174 312.7727 0001362 100.0572 260.0574 15.08776905 89094,6918.073,95.442,540.88,538.996,0.0
53981.0,STARLINK-5149,PAYLOAD,2024-05-13 05:22:48,15.08800807,0.0001297,53.2178,311.285,99.9261,260.1877,0.0012715,0.00019984,0.0,0 STARLINK-5149,1 53981U 22125T   24134.22417548  .00019984  00000-0  12715-2 0  9994,2 53981  53.2178 311.2850 0001297  99.9261 260.1877 15.08800807 89217,6918.0,95.44,540.762,538.968,0.0
53981.0,STARLINK-5149,PAYLOAD,2024-05-13 18:05:54,15.08828462,4.71e-05,53.218,308.9081,31.0788,329.0232,0.0015895,0.00025091,0.0,0 STARLINK-5149,1 53981U 22125T   24134.75409741  .00025091  00000-0  15895-2 0  9996,2 53981  53.2180 308.9081 0000471  31.0788 329.0232 15.08828462 89221,6917.916,95.438,540.106,539.455,0.0
53981.0,STARLINK-5149,PAYLOAD,2024-05-14 11:35:05,15.0889328,0.0001512,53.2172,305.6359,74.8941,285.2218,0.0010986,0.00017265,0.0,0 STARLINK-5149,1 53981U 22125T   24135.48270828  .00017265  00000-0  10986-2 0  9999,2 53981  53.2172 305.6359 0001512  74.8941 285.2218 15.08893280 89404,6917.718,95.434,540.628,538.537,0.0
53981.0,STARLINK-5149,PAYLOAD,2024-05-14 17:56:37,15.0891215,0.0001557,53.2172,304.4468,72.6841,287.4322,0.0011209,0.00017631,0.0,0 STARLINK-5149,1 53981U 22125T   24135.74765357  .00017631  00000-0  11209-2 0  9990,2 53981  53.2172 304.4468 0001557  72.6841 287.4322 15.08912150 89370,6917.66,95.433,540.602,538.448,0.0
53981.0,STARLINK-5149,PAYLOAD,2024-05-15 14:36:37,15.08869161,0.0001457,53.2173,300.5799,50.3165,309.7956,0.00025943,3.847e-05,0.0,0 STARLINK-5149,1 53981U 22125T   24136.60876364  .00003847  00000-0  25943-3 0  9992,2 53981  53.2173 300.5799 0001457  50.3165 309.7956 15.08869161 89505,6917.791,95.436,540.664,538.648,0.0
53981.0,STARLINK-5149,PAYLOAD,2024-05-15 20:58:09,15.08864878,0.0001435,53.2182,299.3908,98.0465,262.069,-0.00010678,-1.988e-05,0.0,0 STARLINK-5149,1 53981U 22125T   24136.87371829 -.00001988  00000-0 -10678-3 0  9992,2 53981  53.2182 299.3908 0001435  98.0465 262.0690 15.08864878 89618,6917.804,95.436,540.662,538.677,0.0
53981.0,STARLINK-5149,PAYLOAD,2024-05-16 03:19:42,15.08845181,0.0001954,53.2168,298.2025,80.7759,279.3454,-0.00034219,-5.731e-05,0.0,0 STARLINK-5149,1 53981U 22125T   24137.13868056 -.00005731  00000-0 -34219-3 0  9992,2 53981  53.2168 298.2025 0001954  80.7759 279.3454 15.08845181 89659,6917.865,95.437,541.081,538.378,0.0
53981.0,STARLINK-5149,PAYLOAD,2024-05-16 11:16:37,15.08831572,0.0001464,53.2178,296.7149,94.6293,265.4866,0.00072568,0.00011277,0.0,0 STARLINK-5149,1 53981U 22125T   24137.46988282  .00011277  00000-0  72568-3 0  9991,2 53981  53.2178 296.7149 0001464  94.6293 265.4866 15.08831572 89633,6917.906,95.438,540.784,538.758,0.0
53981.0,STARLINK-5149,PAYLOAD,2024-05-16 17:38:09,15.08861593,0.0001046,53.2171,295.5247,87.246,272.8652,0.0010013,0.00015693,0.0,0 STARLINK-5149,1 53981U 22125T   24137.73483507  .00015693  00000-0  10013-2 0  9993,2 53981  53.2171 295.5247 0001046  87.2460 272.8652 15.08861593 89745,6917.814,95.436,540.403,538.956,0.0
53981.0,STARLINK-5149,PAYLOAD,2024-05-17 11:07:23,15.08863322,4.47e-05,53.2171,292.2546,48.3338,311.7692,0.00042758,6.528e-05,0.0,0 STARLINK-5149,1 53981U 22125T   24138.46346882  .00006528  00000-0  42758-3 0  9997,2 53981  53.2171 292.2546 0000447  48.3338 311.7692 15.08863322 89858,6917.809,95.436,539.983,539.365,0.0
53981.0,STARLINK-5149,PAYLOAD,2024-05-17 17:28:56,15.08823291,0.0001783,53.2172,291.0632,91.0635,269.0562,-0.0007359,-0.00011976,0.0,0 STARLINK-5149,1 53981U 22125T   24138.72843549 -.00011976  00000-0 -73590-3 0  9991,2 53981  53.2172 291.0632 0001783  91.0635 269.0562 15.08823291 89897,6917.931,95.439,541.03,538.563,0.0
53981.0,STARLINK-5149,PAYLOAD,2024-05-18 14:08:58,15.08839609,0.0001022,53.212,287.1939,65.4317,294.6781,0.00067425,0.00010459,0.0,0 STARLINK-5149,1 53981U 22125T   24139.58956067  .00010459  00000-0  67425-3 0  9999,2 53981  53.2120 287.1939 0001022  65.4317 294.6781 15.08839609 89958,6917.882,95.438,540.454,539.04,0.0
53981.0,STARLINK-5149,PAYLOAD,2024-05-18 18:55:06,15.08863405,7.81e-05,53.2148,286.3055,96.7167,263.3914,0.00094036,0.00014719,0.0,0 STARLINK-5149,1 53981U 22125T   24139.78827370  .00014719  00000-0  94036-3 0  9996,2 53981  53.2148 286.3055 0000781  96.7167 263.3914 15.08863405 90054,6917.809,95.436,540.214,539.134,0.0
53981.0,STARLINK-5149,PAYLOAD,2024-05-19 02:52:03,15.08830253,0.0001473,53.2151,284.8182,92.8777,267.2383,-4.5115e-06,-3.6e-06,0.0,0 STARLINK-5149,1 53981U 22125T   24140.11948538 -.00000360  00000-0 -45115-5 0  9990,2 53981  53.2151 284.8182 0001473  92.8777 267.2383 15.08830253 90109,6917.91,95.438,540.794,538.756,0.0
53981.0,STARLINK-5149,PAYLOAD,2024-05-19 13:59:46,15.08818976,0.0001195,53.2147,282.7342,97.5898,262.523,-2.0791e-05,-6.18e-06,0.0,0 STARLINK-5149,1 53981U 22125T   24140.58317476 -.00000618  00000-0 -20791-4 0  9990,2 53981  53.2147 282.7342 0001195  97.5898 262.5230 15.08818976 90103,6917.945,95.439,540.636,538.983,0.0
